start=new Date('2022-10-07T00:00:00.000Z').valueOf();
sats=[{"DECAY_DATE":null,"ARG_OF_PERICENTER":"58.5718","LAUNCH_DATE":"2021-03-04","APOAPSIS":"548.269","ELEMENT_SET_NO":"999","CENTER_NAME":"EARTH","RCS_SIZE":"LARGE","TIME_SYSTEM":"UTC","MEAN_MOTION":"15.06402800","REV_AT_EPOCH":"9054","REF_FRAME":"TEME","MEAN_MOTION_DOT":"-0.00000645","OBJECT_ID":"2021-017L","RA_OF_ASC_NODE":"337.5565","INCLINATION":"53.0559","MEAN_MOTION_DDOT":"0.0000000000000","MEAN_ELEMENT_THEORY":"SGP4","TLE_LINE2":"2 47732  53.0559 337.5565 0001536  58.5718 301.5421 15.06402800 90545","NORAD_CAT_ID":"47732","CLASSIFICATION_TYPE":"U","FILE":"3594620","GP_ID":"214358154","EPHEMERIS_TYPE":"0","SITE":"AFETR","COUNTRY_CODE":"US","EPOCH":"2022-10-06T20:43:50.016576","OBJECT_TYPE":"PAYLOAD","BSTAR":"-0.00002437300000","SEMIMAJOR_AXIS":"6925.340","TLE_LINE1":"1 47732U 21017L   22279.86377334 -.00000645  00000-0 -24373-4 0  9997","MEAN_ANOMALY":"301.5421","PERIAPSIS":"546.141","ECCENTRICITY":"0.00015360","OBJECT_NAME":"STARLINK-2142","PERIOD":"95.592"},{"LAUNCH_DATE":"2021-03-04","DECAY_DATE":null,"ARG_OF_PERICENTER":"77.7844","APOAPSIS":"548.235","CENTER_NAME":"EARTH","ELEMENT_SET_NO":"999","REV_AT_EPOCH":"8924","REF_FRAME":"TEME","MEAN_MOTION_DOT":"-0.00000103","TIME_SYSTEM":"UTC","RCS_SIZE":"LARGE","MEAN_MOTION":"15.06390061","RA_OF_ASC_NODE":"72.8356","INCLINATION":"53.0563","MEAN_ELEMENT_THEORY":"SGP4","MEAN_MOTION_DDOT":"0.0000000000000","TLE_LINE2":"2 47733  53.0563  72.8356 0001431  77.7844 282.3306 15.06390061 89243","NORAD_CAT_ID":"47733","OBJECT_ID":"2021-017M","FILE":"3594620","CLASSIFICATION_TYPE":"U","SITE":"AFETR","COUNTRY_CODE":"US","EPOCH":"2022-10-06T17:54:37.054944","GP_ID":"214358406","EPHEMERIS_TYPE":"0","ECCENTRICITY":"0.00014310","PERIAPSIS":"546.253","MEAN_ANOMALY":"282.3306","OBJECT_NAME":"STARLINK-2143","OBJECT_TYPE":"PAYLOAD","BSTAR":"0.00001195400000","SEMIMAJOR_AXIS":"6925.379","TLE_LINE1":"1 47733U 21017M   22279.74626221 -.00000103  00000-0  11954-4 0  9996","PERIOD":"95.593"},{"MEAN_MOTION":"15.06391815","TIME_SYSTEM":"UTC","RCS_SIZE":"LARGE","MEAN_MOTION_DOT":"-0.00000284","REF_FRAME":"TEME","REV_AT_EPOCH":"8934","OBJECT_ID":"2021-017N","NORAD_CAT_ID":"47734","TLE_LINE2":"2 47734  53.0553  63.0493 0001128  89.7150 270.3968 15.06391815 89343","MEAN_MOTION_DDOT":"0.0000000000000","MEAN_ELEMENT_THEORY":"SGP4","INCLINATION":"53.0553","RA_OF_ASC_NODE":"63.0493","ARG_OF_PERICENTER":"89.7150","DECAY_DATE":null,"LAUNCH_DATE":"2021-03-04","ELEMENT_SET_NO":"999","CENTER_NAME":"EARTH","APOAPSIS":"548.020","TLE_LINE1":"1 47734U 21017N   22279.69925202 -.00000284  00000-0 -20039-6 0  9999","SEMIMAJOR_AXIS":"6925.374","OBJECT_TYPE":"PAYLOAD","BSTAR":"-0.00000020039000","OBJECT_NAME":"STARLINK-2144","PERIAPSIS":"546.457","MEAN_ANOMALY":"270.3968","ECCENTRICITY":"0.00011280","PERIOD":"95.593","CLASSIFICATION_TYPE":"U","FILE":"3594620","EPHEMERIS_TYPE":"0","GP_ID":"214359133","EPOCH":"2022-10-06T16:46:55.374528","COUNTRY_CODE":"US","SITE":"AFETR"},{"REV_AT_EPOCH":"9034","REF_FRAME":"TEME","MEAN_MOTION_DOT":"-0.00001220","RCS_SIZE":"LARGE","TIME_SYSTEM":"UTC","MEAN_MOTION":"15.06390760","INCLINATION":"53.0566","RA_OF_ASC_NODE":"349.0403","MEAN_ELEMENT_THEORY":"SGP4","MEAN_MOTION_DDOT":"0.0000000000000","NORAD_CAT_ID":"47735","TLE_LINE2":"2 47735  53.0566 349.0403 0001717  54.7520 305.3630 15.06390760 90348","OBJECT_ID":"2021-017P","LAUNCH_DATE":"2021-03-04","DECAY_DATE":null,"ARG_OF_PERICENTER":"54.7520","APOAPSIS":"548.431","CENTER_NAME":"EARTH","ELEMENT_SET_NO":"999","PERIAPSIS":"546.053","MEAN_ANOMALY":"305.3630","ECCENTRICITY":"0.00017170","OBJECT_NAME":"STARLINK-2146","OBJECT_TYPE":"PAYLOAD","BSTAR":"-0.00006301700000","SEMIMAJOR_AXIS":"6925.377","TLE_LINE1":"1 47735U 21017P   22279.51637550 -.00001220  00000-0 -63017-4 0  9999","PERIOD":"95.593","FILE":"3593749","CLASSIFICATION_TYPE":"U","SITE":"AFETR","COUNTRY_CODE":"US","EPOCH":"2022-10-06T12:23:34.843200","GP_ID":"214311586","EPHEMERIS_TYPE":"0"},{"TLE_LINE1":"1 47736U 21017Q   22279.66700626  .00001868  00000-0  14430-3 0  9991","OBJECT_TYPE":"PAYLOAD","BSTAR":"0.00014430000000","SEMIMAJOR_AXIS":"6925.385","PERIAPSIS":"546.233","MEAN_ANOMALY":"306.6411","ECCENTRICITY":"0.00014680","OBJECT_NAME":"STARLINK-2147","PERIOD":"95.593","CLASSIFICATION_TYPE":"U","FILE":"3594620","EPHEMERIS_TYPE":"0","GP_ID":"214357655","EPOCH":"2022-10-06T16:00:29.340864","SITE":"AFETR","COUNTRY_CODE":"US","TIME_SYSTEM":"UTC","RCS_SIZE":"LARGE","MEAN_MOTION":"15.06388267","REF_FRAME":"TEME","MEAN_MOTION_DOT":"0.00001868","REV_AT_EPOCH":"8951","OBJECT_ID":"2021-017Q","TLE_LINE2":"2 47736  53.0560  53.1964 0001468  53.4713 306.6411 15.06388267 89518","NORAD_CAT_ID":"47736","INCLINATION":"53.0560","RA_OF_ASC_NODE":"53.1964","MEAN_ELEMENT_THEORY":"SGP4","MEAN_MOTION_DDOT":"0.0000000000000","DECAY_DATE":null,"ARG_OF_PERICENTER":"53.4713","LAUNCH_DATE":"2021-03-04","ELEMENT_SET_NO":"999","CENTER_NAME":"EARTH","APOAPSIS":"548.266"},{"NORAD_CAT_ID":"47737","TLE_LINE2":"2 47737  53.0515 309.5217 0001953  42.4754 317.6397 15.32056528 90989","MEAN_MOTION_DDOT":"0.0000000000000","MEAN_ELEMENT_THEORY":"SGP4","INCLINATION":"53.0515","RA_OF_ASC_NODE":"309.5217","OBJECT_ID":"2021-017R","MEAN_MOTION_DOT":"0.00018784","REF_FRAME":"TEME","REV_AT_EPOCH":"9098","MEAN_MOTION":"15.32056528","RCS_SIZE":"LARGE","TIME_SYSTEM":"UTC","ELEMENT_SET_NO":"999","CENTER_NAME":"EARTH","APOAPSIS":"471.017","LAUNCH_DATE":"2021-03-04","ARG_OF_PERICENTER":"42.4754","DECAY_DATE":null,"PERIOD":"93.991","OBJECT_NAME":"STARLINK-2148","PERIAPSIS":"468.342","ECCENTRICITY":"0.00019530","MEAN_ANOMALY":"317.6397","TLE_LINE1":"1 47737U 21017R   22279.79530705  .00018784  00000-0  60872-3 0  9991","SEMIMAJOR_AXIS":"6847.814","OBJECT_TYPE":"PAYLOAD","BSTAR":"0.00060872000000","EPOCH":"2022-10-06T19:05:14.529120","COUNTRY_CODE":"US","SITE":"AFETR","EPHEMERIS_TYPE":"0","GP_ID":"214358906","FILE":"3594620","CLASSIFICATION_TYPE":"U"},{"OBJECT_ID":"2021-017S","MEAN_MOTION_DDOT":"0.0000000000000","MEAN_ELEMENT_THEORY":"SGP4","RA_OF_ASC_NODE":"53.5635","INCLINATION":"53.0543","TLE_LINE2":"2 47738  53.0543  53.5635 0001712  72.3278 287.7898 15.06394600 89503","NORAD_CAT_ID":"47738","MEAN_MOTION":"15.06394600","RCS_SIZE":"LARGE","TIME_SYSTEM":"UTC","REV_AT_EPOCH":"8950","MEAN_MOTION_DOT":"0.00001996","REF_FRAME":"TEME","APOAPSIS":"548.416","ELEMENT_SET_NO":"999","CENTER_NAME":"EARTH","ARG_OF_PERICENTER":"72.3278","DECAY_DATE":null,"LAUNCH_DATE":"2021-03-04","PERIOD":"95.592","SEMIMAJOR_AXIS":"6925.365","BSTAR":"0.00015289000000","OBJECT_TYPE":"PAYLOAD","TLE_LINE1":"1 47738U 21017S   22279.64123967  .00001996  00000-0  15289-3 0  9993","OBJECT_NAME":"STARLINK-2149","ECCENTRICITY":"0.00017120","PERIAPSIS":"546.044","MEAN_ANOMALY":"287.7898","GP_ID":"214358634","EPHEMERIS_TYPE":"0","COUNTRY_CODE":"US","SITE":"AFETR","EPOCH":"2022-10-06T15:23:23.107488","CLASSIFICATION_TYPE":"U","FILE":"3594620"},{"EPOCH":"2022-10-06T17:30:03.231648","COUNTRY_CODE":"US","SITE":"AFETR","EPHEMERIS_TYPE":"0","GP_ID":"214357905","FILE":"3594620","CLASSIFICATION_TYPE":"U","PERIOD":"95.593","OBJECT_NAME":"STARLINK-2150","PERIAPSIS":"546.056","MEAN_ANOMALY":"271.2921","ECCENTRICITY":"0.00016980","TLE_LINE1":"1 47739U 21017T   22279.72920407  .00000047  00000-0  22053-4 0  9991","SEMIMAJOR_AXIS":"6925.367","OBJECT_TYPE":"PAYLOAD","BSTAR":"0.00002205300000","CENTER_NAME":"EARTH","ELEMENT_SET_NO":"999","APOAPSIS":"548.408","LAUNCH_DATE":"2021-03-04","ARG_OF_PERICENTER":"88.8262","DECAY_DATE":null,"TLE_LINE2":"2 47739  53.0523  77.9176 0001698  88.8262 271.2921 15.06393847 89170","NORAD_CAT_ID":"47739","MEAN_MOTION_DDOT":"0.0000000000000","MEAN_ELEMENT_THEORY":"SGP4","INCLINATION":"53.0523","RA_OF_ASC_NODE":"77.9176","OBJECT_ID":"2021-017T","MEAN_MOTION_DOT":"0.00000047","REF_FRAME":"TEME","REV_AT_EPOCH":"8917","MEAN_MOTION":"15.06393847","TIME_SYSTEM":"UTC","RCS_SIZE":"LARGE"},{"SITE":"AFETR","COUNTRY_CODE":"US","EPOCH":"2022-10-06T17:02:51.749088","GP_ID":"214358155","EPHEMERIS_TYPE":"0","FILE":"3594620","CLASSIFICATION_TYPE":"U","PERIOD":"95.592","MEAN_ANOMALY":"285.7187","PERIAPSIS":"546.224","ECCENTRICITY":"0.00014470","OBJECT_NAME":"STARLINK-2152","OBJECT_TYPE":"PAYLOAD","BSTAR":"0.00013447000000","SEMIMAJOR_AXIS":"6925.361","TLE_LINE1":"1 47740U 21017U   22279.71032117  .00001722  00000-0  13447-3 0  9991","APOAPSIS":"548.228","ELEMENT_SET_NO":"999","CENTER_NAME":"EARTH","LAUNCH_DATE":"2021-03-04","DECAY_DATE":null,"ARG_OF_PERICENTER":"74.3962","RA_OF_ASC_NODE":"63.0017","INCLINATION":"53.0550","MEAN_ELEMENT_THEORY":"SGP4","MEAN_MOTION_DDOT":"0.0000000000000","TLE_LINE2":"2 47740  53.0550  63.0017 0001447  74.3962 285.7187 15.06395925 89376","NORAD_CAT_ID":"47740","OBJECT_ID":"2021-017U","REV_AT_EPOCH":"8937","REF_FRAME":"TEME","MEAN_MOTION_DOT":"0.00001722","RCS_SIZE":"LARGE","TIME_SYSTEM":"UTC","MEAN_MOTION":"15.06395925"},{"OBJECT_ID":"2021-017V","TLE_LINE2":"2 47741  53.0569  62.9390 0001192  83.5926 276.5199 15.06397899 89337","NORAD_CAT_ID":"47741","INCLINATION":"53.0569","RA_OF_ASC_NODE":"62.9390","MEAN_MOTION_DDOT":"0.0000000000000","MEAN_ELEMENT_THEORY":"SGP4","TIME_SYSTEM":"UTC","RCS_SIZE":"LARGE","MEAN_MOTION":"15.06397899","REF_FRAME":"TEME","MEAN_MOTION_DOT":"0.00000013","REV_AT_EPOCH":"8933","CENTER_NAME":"EARTH","ELEMENT_SET_NO":"999","APOAPSIS":"548.045","DECAY_DATE":null,"ARG_OF_PERICENTER":"83.5926","LAUNCH_DATE":"2021-03-04","PERIOD":"95.592","TLE_LINE1":"1 47741U 21017V   22279.72505677  .00000013  00000-0  19760-4 0  9996","OBJECT_TYPE":"PAYLOAD","BSTAR":"0.00001976000000","SEMIMAJOR_AXIS":"6925.355","MEAN_ANOMALY":"276.5199","PERIAPSIS":"546.394","ECCENTRICITY":"0.00011920","OBJECT_NAME":"STARLINK-2154","EPHEMERIS_TYPE":"0","GP_ID":"214358407","EPOCH":"2022-10-06T17:24:04.904928","SITE":"AFETR","COUNTRY_CODE":"US","CLASSIFICATION_TYPE":"U","FILE":"3594620"}];
